BEIDOU-3 M14            
1 43623U 18072B   26133.49911569 -.00000035  00000+0  00000+0 0  9992
2 43623  56.5975  63.7985 0006636 347.5054  12.4607  1.86231510 52008
BEIDOU-3 M16            
1 43647U 18078A   26132.58110638 -.00000042  00000+0  00000+0 0  9999
2 43647  54.1235 301.2337 0007880  39.7391 320.3068  1.86232272 51494
BEIDOU-3 M15            
1 43648U 18078B   26132.71039991 -.00000043  00000+0  00000+0 0  9998
2 43648  54.1193 301.2299 0005041  52.0835 307.9498  1.86232596 51513
BEIDOU-3 G1             
1 43683U 18085A   26133.70890306 -.00000093  00000+0  00000+0 0  9995
2 43683   2.9862  98.2826 0007539 339.3962 208.9822  1.00272631 27717
BEIDOU-3 M17            
1 43706U 18093A   26131.35359073  .00000068  00000+0  00000+0 0  9991
2 43706  54.1670 183.5464 0009480 290.8488 131.5748  1.86228417 50852
BEIDOU-3 M18            
1 43707U 18093B   26132.73439434  .00000084  00000+0  00000+0 0  9993
2 43707  54.1678 183.4917 0007396 321.8656  38.1678  1.86226542 50872
BEIDOU-3 IGSO-1         
1 44204U 19023A   26132.76772565 -.00000227  00000+0  00000+0 0  9998
2 44204  58.6468  38.0171 0023856 234.3090 349.8662  1.00250503  6851
BEIDOU-2 G8             
1 44231U 19027A   26134.20492918 -.00000232  00000+0  00000+0 0  9990
2 44231   1.5713  74.4250 0010829 281.6698  94.1696  1.00272839 25740
BEIDOU-3 IGSO-2         
1 44337U 19035A   26132.65390358 -.00000046  00000+0  00000+0 0  9991
2 44337  55.2385 159.1745 0039680 215.7907 210.7620  1.00277740 25317
BEIDOU-3 M24            
1 44542U 19061A   26133.34045131  .00000090  00000+0  00000+0 0  9999
2 44542  54.3947 183.9035 0008074   2.8226 357.2705  1.86229288 45140
BEIDOU-3 M23            
1 44543U 19061B   26134.17973947  .00000096  00000+0  00000+0 0  9993
2 44543  54.3932 183.8436 0005229 341.9949 132.6039  1.86227353 45165
BEIDOU-3 IGSO-3         
1 44709U 19073A   26120.85038409 -.00000212  00000+0  00000+0 0  9996
2 44709  54.8842 281.4069 0042404 188.8195 170.9972  1.00251230 23982
BEIDOU-3 M22            
1 44793U 19078A   26133.17974627 -.00000045  00000+0  00000+0 0  9998
2 44793  53.9691 301.0594 0007131  47.8476 312.1989  1.86227440 43994
BEIDOU-3 M21            
1 44794U 19078B   26130.09800295 -.00000037  00000+0  00000+0 0  9997
2 44794  53.9450 301.1295 0004992  44.9662 315.0658  1.86228028 43947
BEIDOU-3 M19            
1 44864U 19090A   26133.83522501 -.00000036  00000+0  00000+0 0  9994
2 44864  56.5298  63.9264 0018790 297.2408 245.4246  1.86231523 43599
BEIDOU-3 M20            
1 44865U 19090B   26133.70218928 -.00000035  00000+0  00000+0 0  9995
2 44865  56.5316  63.9655 0016943 309.1689 233.9068  1.86231614 43570
BEIDOU-3 G2             
1 45344U 20017A   26134.12084611 -.00000127  00000+0  00000+0 0  9998
2 45344   2.7953  46.7974 0002580  10.0734 298.5569  1.00272470 22916
BEIDOU-3 G3             
1 45807U 20040A   26134.05561519 -.00000340  00000+0  00000+0 0  9994
2 45807   2.3629  67.3472 0003310 334.3289 320.6897  1.00274836 21724
BEIDOU-3 G4             
1 56564U 23066A   26133.34847302 -.00000270  00000+0  00000+0 0  9997
2 56564   0.5332 323.1662 0003490 161.2314  12.1224  1.00265956 11040
BEIDOU-3 M28            
1 58654U 23207A   26132.32302171 -.00000030  00000+0  00000+0 0  9997
2 58654  55.7225  63.5128 0004245 330.2096  29.7521  1.86229701 16176
BEIDOU-3 M26            
1 58655U 23207B   26133.19442947 -.00000035  00000+0  00000+0 0  9995
2 58655  55.7254  63.4698 0004439 309.9191  50.0256  1.86229669 16179
BEIDOU-3 M25            
1 61186U 24168B   26133.64853742 -.00000046  00000+0  00000+0 0  9996
2 61186  54.5055 303.4426 0003107 313.1009 108.5394  1.86229985 11145
BEIDOU-3 M27            
1 61187U 24168C   26133.36745762 -.00000045  00000+0  00000+0 0  9997
2 61187  54.5014 303.4354 0002241  43.5716 324.6381  1.86230101  8615
